[{"OBJECT_NAME":"SALSAT","OBJECT_ID":"2020-068K","EPOCH":"2026-03-09T22:26:21.804576","MEAN_MOTION":15.28191989,"ECCENTRICITY":0.00082652,"INCLINATION":97.8859,"RA_OF_ASC_NODE":66.0795,"ARG_OF_PERICENTER":295.8051,"MEAN_ANOMALY":64.2334,"EPHEMERIS_TYPE":0,"CLASSIFICATION_TYPE":"U","NORAD_CAT_ID":46495,"ELEMENT_SET_NO":999,"REV_AT_EPOCH":30019,"BSTAR":0.00040842582,"MEAN_MOTION_DOT":0.00011156,"MEAN_MOTION_DDOT":0},{"OBJECT_NAME":"STARLINK-30758","OBJECT_ID":"2023-162R","EPOCH":"2026-03-09T13:08:07.564128","MEAN_MOTION":15.26920058,"ECCENTRICITY":0.0002801,"INCLINATION":43.0036,"RA_OF_ASC_NODE":130.0263,"ARG_OF_PERICENTER":273.5061,"MEAN_ANOMALY":86.547,"EPHEMERIS_TYPE":0,"CLASSIFICATION_TYPE":"U","NORAD_CAT_ID":58133,"ELEMENT_SET_NO":999,"REV_AT_EPOCH":13232,"BSTAR":0.0014419,"MEAN_MOTION_DOT":0.00038835,"MEAN_MOTION_DDOT":0}]
